TRANSIT 16 [?]          
1 02807U 67048A   21341.45785263  .00000078  00000+0  10495-3 0  9999
2 02807  89.6496  43.2859 0021220  40.5719 331.0888 13.50279339684860
TRANSIT 17 [?]          
1 02965U 67092A   21341.51463463  .00000053  00000+0  61279-4 0  9995
2 02965  89.2485 138.1033 0048035 170.4846 255.1440 13.52991138672681
TRANSIT 18 [?]          
1 03133U 68012A   21341.54356501  .00000098  00000+0  13381-3 0  9992
2 03133  90.0014 271.5612 0077155  96.5183  77.2143 13.51117964371178
NNSS 19 [?]             
1 04507U 70067A   21341.48591900  .00000036  00000+0  39086-4 0  9991
2 04507  89.9123 240.9717 0170821 219.5688 139.2894 13.50788682524249
NNSS O-20 [?]           
1 06909U 73081A   21341.55764463  .00000090  00000+0  80666-4 0  9992
2 06909  89.8161 281.1580 0157298 150.9780 210.0242 13.70621820602724
TRANSAT [?]             
1 10457U 77106A   21341.44536172  .00000041  00000+0  48347-4 0  9995
2 10457  89.6918 128.5162 0027054  99.7432 319.0781 13.48656757169789
NOVA I [?]              
1 12458U 81044A   21341.44009522  .00000016  00000+0  16669-4 0  9992
2 12458  89.8959 109.6756 0014347 181.0805 245.4167 13.23046418957952
NOVA 3 [?]              
1 15362U 84110A   21341.50133786  .00000057  00000+0  11499-3 0  9993
2 15362  90.0951  65.2628 0032949  53.6534 317.4951 13.22814508793132
OSCAR 30 [?]            
1 15935U 85066A   21341.54678436  .00000070  00000+0  11523-3 0  9993
2 15935  90.1768  74.6316 0167437 259.4900 109.7394 13.35728864768786
OSCAR 24 [?]            
1 15936U 85066B   21341.52702432  .00000078  00000+0  12868-3 0  9997
2 15936  90.1700  66.7279 0167789 265.1109 103.8901 13.35589707770703
POLAR BEAR [?]          
1 17070U 86088A   21341.52652213  .00000062  00000+0  52844-4 0  9996
2 17070  89.5545 246.5348 0037507 220.0291 313.4790 13.74840016758307
OSCAR 27 [?]            
1 18361U 87080A   21341.36763183  .00000054  00000+0  73918-4 0  9990
2 18361  90.3250  27.9792 0106371 103.2174 258.0866 13.44535682678504
OSCAR 29 [?]            
1 18362U 87080B   21341.59797566  .00000050  00000+0  67324-4 0  9998
2 18362  90.3261  28.2959 0107867 122.1065  31.5572 13.44129146678126
OSCAR 23 [?]            
1 19070U 88033A   21341.51121073  .00000027  00000+0  41836-4 0  9994
2 19070  90.3368 330.4940 0188466 297.5620 178.8047 13.27499781627983
OSCAR 32 [?]            
1 19071U 88033B   21341.45433064  .00000021  00000+0  29722-4 0  9998
2 19071  90.3370 330.5737 0186559 285.7404 187.8114 13.27680437628078
NOVA 11 [?]             
1 19223U 88052A   21341.54961448  .00000086  00000+0  18269-3 0  9994
2 19223  89.9752  81.3965 0032251  94.5789 277.4053 13.22730889615649
OSCAR 25 [?]            
1 19419U 88074A   21341.56525688  .00000051  00000+0  70106-4 0  9990
2 19419  90.0013  17.8405 0098299 107.9212  49.4237 13.42267991629698
OSCAR 31 [?]            
1 19420U 88074B   21341.50009020  .00000047  00000+0  63287-4 0  9990
2 19420  90.0023  17.9970 0096497 102.3744  23.6452 13.42282186629793
